NORAD_CAT_ID,OBJECT_NAME,OBJECT_TYPE,EPOCH,MEAN_MOTION,ECCENTRICITY,INCLINATION,RA_OF_ASC_NODE,ARG_OF_PERICENTER,MEAN_ANOMALY,BSTAR,MEAN_MOTION_DOT,MEAN_MOTION_DDOT,TLE_LINE0,TLE_LINE1,TLE_LINE2,SEMIMAJOR_AXIS,PERIOD,APOGEE,PERIGEE,DECAYED
53551.0,STARLINK-4514,PAYLOAD,2022-11-20 18:34:50,15.08839504,0.0001565999999999,53.2162,73.1926,61.894,298.2211,0.00011078,1.475e-05,0.0,0 STARLINK-4514,1 53551U 22101AA  22324.77419306  .00001475  00000-0  11078-3 0  9992,2 53551  53.2162  73.1926 0001566  61.8940 298.2211 15.08839504 15064,6917.882,95.438,540.83,538.664,0.0
53551.0,STARLINK-4514,PAYLOAD,2022-11-21 00:56:25,15.08811165,0.0001622,53.2158,72.0033,66.0888,294.0274,-0.00014806,-2.642e-05,0.0,0 STARLINK-4514,1 53551U 22101AA  22325.03918208 -.00002642  00000-0 -14806-3 0  9998,2 53551  53.2158  72.0033 0001622  66.0888 294.0274 15.08811165 14444,6917.969,95.439,540.956,538.711,0.0
53551.0,STARLINK-4514,PAYLOAD,2022-11-21 13:39:29,15.08838683,0.0001525,53.2158,69.6246,63.5149,296.5999,-6.1183e-06,-3.85e-06,0.0,0 STARLINK-4514,1 53551U 22101AA  22325.56908856 -.00000385  00000-0 -61183-5 0  9998,2 53551  53.2158  69.6246 0001525  63.5149 296.5999 15.08838683 15183,6917.884,95.438,540.804,538.694,0.0
53551.0,STARLINK-4514,PAYLOAD,2022-11-21 16:50:15,15.08839688,0.0001479,53.2159,69.0289,66.7262,293.3886,-2.2581e-05,-6.47e-06,0.0,0 STARLINK-4514,1 53551U 22101AA  22325.70156851 -.00000647  00000-0 -22581-4 0  9993,2 53551  53.2159  69.0289 0001479  66.7262 293.3886 15.08839688 14549,6917.880999999999,95.438,540.769,538.7230000000002,0.0
53551.0,STARLINK-4514,PAYLOAD,2022-11-21 18:25:38,15.08841364,0.0001561999999999,53.216,68.7325,64.417,295.6983,-1.4385e-05,-5.17e-06,0.0,0 STARLINK-4514,1 53551U 22101AA  22325.76780746 -.00000517  00000-0 -14385-4 0  9994,2 53551  53.2160  68.7325 0001562  64.4170 295.6983 15.08841364 15216,6917.876,95.437,540.822,538.661,0.0
53551.0,STARLINK-4514,PAYLOAD,2022-11-22 10:19:28,15.08850123,0.00016,53.2165,65.758,66.4658,293.6502,0.00012377,1.683e-05,0.0,0 STARLINK-4514,1 53551U 22101AA  22326.43019583  .00001683  00000-0  12377-3 0  9994,2 53551  53.2165  65.7580 0001600  66.4658 293.6502 15.08850123 14652,6917.849,95.437,540.821,538.6080000000002,0.0
53551.0,STARLINK-4514,PAYLOAD,2022-11-22 13:30:14,15.08852084,0.0001496999999999,53.2166,65.1637,63.053,297.0615,0.00013495,1.861e-05,0.0,0 STARLINK-4514,1 53551U 22101AA  22326.56267265  .00001861  00000-0  13495-3 0  9990,2 53551  53.2166  65.1637 0001497  63.0530 297.0615 15.08852084 15333,6917.843000000003,95.437,540.744,538.673,0.0
53551.0,STARLINK-4514,PAYLOAD,2022-11-22 18:16:24,15.08849867,0.0001361999999999,53.2185,64.2718,55.1701,304.9419,8.3057e-05,1.035e-05,0.0,0 STARLINK-4514,1 53551U 22101AA  22326.76139464  .00001035  00000-0  83057-4 0  9996,2 53551  53.2185  64.2718 0001362  55.1701 304.9419 15.08849867 15365,6917.85,95.437,540.6569999999998,538.773,0.0
53551.0,STARLINK-4514,PAYLOAD,2022-11-23 10:10:17,15.08823053,0.0001379,53.2166,61.2986,64.1664,295.947,0.00020389,2.957e-05,0.0,0 STARLINK-4514,1 53551U 22101AA  22327.42380830  .00002957  00000-0  20389-3 0  9997,2 53551  53.2166  61.2986 0001379  64.1664 295.9470 15.08823053 14807,6917.932,95.439,540.751,538.8430000000002,0.0
53551.0,STARLINK-4514,PAYLOAD,2022-11-23 18:07:12,15.08843583,0.0001332,53.2165,59.8115,60.1688,299.9436,-7.8699e-06,-4.13e-06,0.0,0 STARLINK-4514,1 53551U 22101AA  22327.75500431 -.00000413  00000-0 -78699-5 0  9990,2 53551  53.2165  59.8115 0001332  60.1688 299.9436 15.08843583 15519,6917.869000000002,95.437,540.656,538.813,0.0
53551.0,STARLINK-4514,PAYLOAD,2022-11-24 10:01:03,15.0884625,0.0001391,53.2168,56.8364,65.2947,294.819,-0.00012333,-2.251e-05,0.0,0 STARLINK-4514,1 53551U 22101AA  22328.41740471 -.00002251  00000-0 -12333-3 0  9997,2 53551  53.2168  56.8364 0001391  65.2947 294.8190 15.08846250 15610,6917.861,95.437,540.689,538.764,0.0
53551.0,STARLINK-4514,PAYLOAD,2022-11-24 14:47:13,15.08846062,0.0001444,53.217,55.9451,64.2691,295.845,-0.00010622,-1.978e-05,0.0,0 STARLINK-4514,1 53551U 22101AA  22328.61612361 -.00001978  00000-0 -10622-3 0  9999,2 53551  53.2170  55.9451 0001444  64.2691 295.8450 15.08846062 15648,6917.861999999999,95.437,540.726,538.7280000000002,0.0
53551.0,STARLINK-4514,PAYLOAD,2022-11-24 22:44:08,15.08843466,0.0001495,53.2171,54.4583,63.6127,296.5018,2.8891e-05,1.72e-06,0.0,0 STARLINK-4514,1 53551U 22101AA  22328.94731941  .00000172  00000-0  28891-4 0  9992,2 53551  53.2171  54.4583 0001495  63.6127 296.5018 15.08843466 15038,6917.87,95.437,540.769,538.701,0.0
53551.0,STARLINK-4514,PAYLOAD,2022-11-25 11:27:13,15.088328099999998,0.0001472,53.2173,52.0793,63.7202,296.3941,5.657e-05,6.12e-06,0.0,0 STARLINK-4514,1 53551U 22101AA  22329.47724336  .00000612  00000-0  56570-4 0  9995,2 53551  53.2173  52.0793 0001472  63.7202 296.3941 15.08832810 15772,6917.901999999999,95.438,540.786,538.749,0.0
53551.0,STARLINK-4514,PAYLOAD,2022-11-25 17:48:46,15.0884075,0.0001443,53.217,50.8894,61.2183,298.8954,2.6635e-05,1.36e-06,0.0,0 STARLINK-4514,1 53551U 22101AA  22329.74219966  .00000136  00000-0  26635-4 0  9993,2 53551  53.2170  50.8894 0001443  61.2183 298.8954 15.08840750 15814,6917.878000000002,95.438,540.741,538.745,0.0
53551.0,STARLINK-4514,PAYLOAD,2022-11-26 08:07:13,15.08844882,0.0001423,53.217,48.2131,59.5093,300.6040000000001,7.1165e-05,8.45e-06,0.0,0 STARLINK-4514,1 53551U 22101AA  22330.33835276  .00000845  00000-0  71165-4 0  9993,2 53551  53.2170  48.2131 0001423  59.5093 300.6040 15.08844882 15242,6917.865,95.437,540.715,538.746,0.0
53551.0,STARLINK-4514,PAYLOAD,2022-11-26 11:18:00,15.08843291,0.0001436,53.217,47.6182,61.7705,298.3432,5.641100000000001e-05,6.1e-06,0.0,0 STARLINK-4514,1 53551U 22101AA  22330.47083386  .00000610  00000-0  56411-4 0  9992,2 53551  53.2170  47.6182 0001436  61.7705 298.3432 15.08843291 15926,6917.87,95.437,540.729,538.742,0.0
53551.0,STARLINK-4514,PAYLOAD,2022-11-26 14:28:46,15.08842719,0.0001449,53.217,47.0235,62.4404,297.6735,4.7765e-05,4.72e-06,0.0,0 STARLINK-4514,1 53551U 22101AA  22330.60331417  .00000472  00000-0  47765-4 0  9996,2 53551  53.2170  47.0235 0001449  62.4404 297.6735 15.08842719 15941,6917.871999999999,95.437,540.739,538.735,0.0
53551.0,STARLINK-4514,PAYLOAD,2022-11-27 07:58:01,15.08831784,0.0001457,53.2171,43.7519,59.8365,300.2771,-6.4053e-05,-1.307e-05,0.0,0 STARLINK-4514,1 53551U 22101AA  22331.33196249 -.00001307  00000-0 -64053-4 0  9998,2 53551  53.2171  43.7519 0001457  59.8365 300.2771 15.08831784 15395,6917.906,95.438,540.778,538.763,0.0
53551.0,STARLINK-4514,PAYLOAD,2022-11-27 14:19:34,15.08828708,0.0001434,53.2172,42.5624,54.5086,305.6040000000001,-8.010399999999999e-05,-1.562e-05,0.0,0 STARLINK-4514,1 53551U 22101AA  22331.59692625 -.00001562  00000-0 -80104-4 0  9993,2 53551  53.2172  42.5624 0001434  54.5086 305.6040 15.08828708 16095,6917.915,95.438,540.7719999999998,538.788,0.0
53551.0,STARLINK-4514,PAYLOAD,2022-11-28 10:59:33,15.08854931,0.0001602,53.2172,38.6971,59.2357,300.8793,-0.00015281,-2.72e-05,0.0,0 STARLINK-4514,1 53551U 22101AA  22332.45803227 -.00002720  00000-0 -15281-3 0  9991,2 53551  53.2172  38.6971 0001602  59.2357 300.8793 15.08854931 15566,6917.835,95.437,540.808,538.592,0.0
53551.0,STARLINK-4514,PAYLOAD,2022-11-28 22:07:16,15.08836921,0.0001581,53.2171,36.616,59.073,301.0417,-6.6542e-05,-1.347e-05,0.0,0 STARLINK-4514,1 53551U 22101AA  22332.92172164 -.00001347  00000-0 -66542-4 0  9993,2 53551  53.2171  36.6160 0001581  59.0730 301.0417 15.08836921 15635,6917.89,95.438,540.849,538.661,0.0
53551.0,STARLINK-4514,PAYLOAD,2022-11-29 06:04:12,15.08817785,0.0001349,53.2169,35.1296,55.3404,304.7715,0.00017328,2.469e-05,0.0,0 STARLINK-4514,1 53551U 22101AA  22333.25292532  .00002469  00000-0  17328-3 0  9993,2 53551  53.2169  35.1296 0001349  55.3404 304.7715 15.08817785 15688,6917.948,95.439,540.747,538.88,0.0
53551.0,STARLINK-4514,PAYLOAD,2022-11-29 14:01:07,15.0883729,0.0001568,53.2175,33.6432,55.5967,304.5173,0.00012349,1.678e-05,0.0,0 STARLINK-4514,1 53551U 22101AA  22333.58411522  .00001678  00000-0  12349-3 0  9990,2 53551  53.2175  33.6432 0001568  55.5967 304.5173 15.08837290 15734,6917.889,95.438,540.8380000000002,538.669,0.0
53551.0,STARLINK-4514,PAYLOAD,2022-11-30 05:55:00,15.08831629,0.000194,53.2171,30.6707,52.3897,307.7271,-5.6097e-05,-1.181e-05,0.0,0 STARLINK-4514,1 53551U 22101AA  22334.24652852 -.00001181  00000-0 -56097-4 0  9997,2 53551  53.2171  30.6707 0001940  52.3897 307.7271 15.08831629 15838,6917.906,95.438,541.113,538.429,0.0
53551.0,STARLINK-4514,PAYLOAD,2022-11-30 13:51:56,15.08828502,0.0001828,53.2172,29.1838,50.9025,309.2129,-8.7771e-05,-1.684e-05,0.0,0 STARLINK-4514,1 53551U 22101AA  22334.57773306 -.00001684  00000-0 -87771-4 0  9992,2 53551  53.2172  29.1838 0001828  50.9025 309.2129 15.08828502 16543,6917.916,95.438,541.045,538.516,0.0
53551.0,STARLINK-4514,PAYLOAD,2022-12-01 04:10:23,15.08839047,0.0001435,53.2168,26.5055,51.5708,308.5412,4.533e-05,4.34e-06,0.0,0 STARLINK-4514,1 53551U 22101AA  22335.17388160  .00000434  00000-0  45330-4 0  9994,2 53551  53.2168  26.5055 0001435  51.5708 308.5412 15.08839047 16632,6917.8830000000025,95.438,540.741,538.756,0.0
53551.0,STARLINK-4514,PAYLOAD,2022-12-01 15:18:05,15.08838129,0.0001271,53.2171,24.4233,60.4409,299.6709,-5.921e-05,-1.23e-05,0.0,0 STARLINK-4514,1 53551U 22101AA  22335.63756578 -.00001230  00000-0 -59210-4 0  9996,2 53551  53.2171  24.4233 0001271  60.4409 299.6709 15.08838129 16040,6917.886,95.438,540.63,538.872,0.0
53551.0,STARLINK-4514,PAYLOAD,2022-12-01 20:04:14,15.08842281,0.0001261,53.2169,23.5323,48.2043,311.9057,2.9953e-06,-2.4e-06,0.0,0 STARLINK-4514,1 53551U 22101AA  22335.83628040 -.00000240  00000-0  29953-5 0  9991,2 53551  53.2169  23.5323 0001261  48.2043 311.9057 15.08842281 16738,6917.873000000001,95.437,540.611,538.866,0.0
